ECHOSTAR 7              
1 27378U 02006A   21272.53896794 -.00000001  00000-0  00000-0 0  9992
2 27378   0.0134 103.3442 0002326  38.7245 301.6850  1.00271422 33330
INTELSAT 904 (IS-904)   
1 27380U 02007A   21272.98745067 -.00000214  00000-0  00000+0 0  9996
2 27380   2.5861  88.6264 0002879 103.8422 142.4917  1.00271340 71828
TDRS 9                  
1 27389U 02011A   21273.33979465 -.00000284  00000-0  00000+0 0  9998
2 27389   8.4681  63.1498 0022542 286.6217  79.3555  1.00279839 73188
ASTRA 3A                
1 27400U 02015B   21273.40664087 -.00000201  00000-0  00000+0 0  9994
2 27400   6.8577  60.7938 0001005 140.2899 227.8579  1.00274083 71463
NSS-7                   
1 27414U 02019A   21272.34334528 -.00000156  00000-0  00000-0 0  9999
2 27414   5.2922  73.3553 0002323 125.4009 273.1897  1.00271267 71301
DIRECTV 5 (TEMPO 1)     
1 27426U 02023A   21273.51868812 -.00000058  00000-0  00000+0 0  9995
2 27426   0.4717  96.0707 0003388 102.2831 247.7529  1.00272347 71055
INTELSAT 905 (IS-905)   
1 27438U 02027A   21272.98035566 -.00000185  00000-0  00000+0 0  9995
2 27438   2.4076  89.4113 0002526 100.3138 147.6869  1.00272585 70707
GALAXY 3C (G-3C)        
1 27445U 02030A   21273.47676424 -.00000153  00000-0  00000+0 0  9991
2 27445   0.0275 278.2247 0001449  48.6824 119.1313  1.00273304 70703
EUTELSAT 5 WEST A       
1 27460U 02035A   21273.06412427 -.00000043  00000-0  00000+0 0  9997
2 27460   1.6749  92.1450 0005168 105.6593 189.3181  1.00272268 70497
METEOSAT-8 (MSG-1)      
1 27509U 02040B   21272.49919647  .00000138  00000-0  00000-0 0  9994
2 27509   7.5567  51.9531 0001493 178.3373 359.3852  1.00268159 69998
INTELSAT 906 (IS-906)   
1 27513U 02041A   21272.78452005  .00000014  00000-0  00000+0 0  9994
2 27513   1.4182  93.4759 0003210  98.4301 163.4374  1.00272316 69717
HISPASAT 30W-4          
1 27528U 02044A   21272.67773198  .00000116  00000-0  00000+0 0  9993
2 27528   2.1926  89.5714 0004482 100.0879 279.9903  1.00274522 69684
TDRS 10                 
1 27566U 02055A   21272.77845424  .00000092  00000-0  00000+0 0  9993
2 27566   7.7298  51.3395 0005483 336.2741  90.2263  1.00273062 68965
NSS-6                   
1 27603U 02057A   21273.10308466  .00000107  00000-0  00000+0 0  9992
2 27603   0.9535  94.5439 0003380  98.9660  43.1765  1.00274095 68770
NIMIQ 2                 
1 27632U 02062A   21272.13910788  .00000143  00000-0  00000+0 0  9998
2 27632   5.4001  72.4699 0001382  59.3743 321.9490  1.00011039 68607
USA 167                 
1 27691U 03008A   21273.50272962  .00000057  00000-0  00000+0 0  9995
2 27691   7.5343  56.1938 0002219  43.4844 320.6491  1.00274861 14371
USA 169 (MILSTAR-2 4)   
1 27711U 03012A   21272.53847455 -.00000191  00000-0  00000-0 0  9991
2 27711   9.7367  41.8656 0002891 155.9415 156.7356  1.00271552 15688
GALAXY 12 (G-12)        
1 27715U 03013B   21273.50394091  .00000057  00000-0  00000+0 0  9996
2 27715   2.6221  88.1663 0001860 112.1217 221.6193  1.00271312 67755
ASIASAT 4               
1 27718U 03014A   21272.71384028  .00000152  00000-0  00000+0 0  9997
2 27718   0.3146  97.9653 0002319  96.1633 109.7674  1.00275146 67657
HELLAS-SAT 2            
1 27811U 03020A   21273.04597404 -.00000151  00000-0  00000+0 0  9999
2 27811   3.0386  87.3081 0004409 105.3179  97.7724  1.00272269 67076
THURAYA-2               
1 27825U 03026A   21272.49963257  .00000130  00000-0  00000-0 0  9998
2 27825   6.4193  34.0151 0004632 123.0087  75.3293  1.00271315 67089
OPTUS C1                
1 27831U 03028B   21272.84720399 -.00000150  00000-0  00000+0 0  9996
2 27831   2.5484  89.2585 0006032  99.7416 280.5631  1.00272528 67061
GALAXY 23 (G-23)        
1 27854U 03034A   21273.51063438  .00000011  00000-0  00000+0 0  9992
2 27854   0.0414 258.0084 0002925 287.3237 246.9919  1.00271557 71291
USA 170                 
1 27875U 03040A   21272.33889715 -.00000270  00000-0  00000-0 0  9994
2 27875   6.8352  61.5882 0004645 124.4269 262.0401  1.00270227 15701
GALAXY 13 (HORIZONS 1)  
1 27954U 03044A   21273.50493824  .00000046  00000-0  00000+0 0  9997
2 27954   0.0174 136.8652 0003073  45.1908 242.1848  1.00277437 65902
YAMAL 202               
1 28089U 03053A   21273.26944360 -.00000079  00000-0  00000+0 0  9993
2 28089   1.9835  90.7020 0006096  67.7493 111.2958  1.00272839 65426
UFO 11 (USA 174)        
1 28117U 03057A   21273.43882435 -.00000090  00000-0  00000+0 0  9995
2 28117   6.6321  37.8616 0002513  83.9827 119.9753  1.00271897 65166
USA 176 (DSP 22)        
1 28158U 04004A   21272.36471372 -.00000215  00000-0  00000-0 0  9998
2 28158   9.7542  36.6740 0000939 174.7997  15.4455  1.00276872 15669
ABS-4 (MOBISAT-1)       
1 28184U 04007A   21272.54414684  .00000040  00000-0  00000-0 0  9998
2 28184   1.6666  91.9493 0005233  96.4663  77.0434  1.00269081 35079
EUTELSAT 7A             
1 28187U 04008A   21272.53495590  .00000104  00000-0  00000-0 0  9997
2 28187   1.4547  90.2610 0004206 104.7187 226.9199  1.00273156 64088
AMC-11 (GE-11)          
1 28252U 04017A   21272.63967678  .00000068  00000-0  00000+0 0  9990
2 28252   0.0311  50.2505 0002710 145.7162 271.9524  1.00273183 63441
INTELSAT 10-02          
1 28358U 04022A   21272.70607788 -.00000012  00000-0  00000+0 0  9994
2 28358   0.0163 151.5615 0001140  58.5726  51.7475  1.00272330 63366
ANIK F2                 
1 28378U 04027A   21273.04300862 -.00000051  00000-0  00000+0 0  9995
2 28378   0.0479  85.3408 0001250 131.3467  56.7535  1.00272137 63093
AMC-15                  
1 28446U 04041A   21273.52324679 -.00000091  00000-0  00000+0 0  9996
2 28446   0.0393  35.4402 0002599 158.6069 258.7817  1.00272253 62096
NSS-10 (AMC-12)         
1 28526U 05003A   21273.41649650 -.00000251  00000-0  00000+0 0  9999
2 28526   2.1409  90.0029 0002917 104.0321 287.8628  1.00272466 61063
XTAR-EUR                
1 28542U 05005A   21271.89756382  .00000150  00000-0  00000-0 0  9998
2 28542   0.0199 182.2400 0002423   5.1470 172.6095  1.00270866 60913
XM-3 (RHYTHM)           
1 28626U 05008A   21273.40698973 -.00000207  00000-0  00000+0 0  9997
2 28626   0.0063 169.4539 0000792 283.3620 337.9827  1.00271597 60810
INMARSAT 4-F1           
1 28628U 05009A   21272.95020854 -.00000260  00000-0  00000+0 0  9995
2 28628   3.4313  32.1628 0002949 167.0072 295.3476  1.00271378 60406
DIRECTV 8               
1 28659U 05019A   21272.63828203 -.00000000  00000-0  00000+0 0  9991
2 28659   0.0167 242.3129 0003050 312.5459 284.5047  1.00272127 59923
GALAXY 28 (G-28)        
1 28702U 05022A   21273.04737840 -.00000186  00000-0  00000+0 0  9991
2 28702   0.0232 143.7514 0000864  53.7100  99.6306  1.00266626 59564
EXPRESS-AM3             
1 28707U 05023A   21272.17063366  .00000135  00000-0  00000+0 0  9998
2 28707   2.9286  86.1114 0001343 111.8456 254.6566  1.00276339 59572
THAICOM 4               
1 28786U 05028A   21273.51958833 -.00000364  00000-0  00000+0 0  9996
2 28786   0.0223 178.8008 0002680  15.6877 121.5420  1.00268463 59078
GALAXY 14 (G-14)        
1 28790U 05030A   21273.07171226  .00000154  00000-0  00000+0 0  9994
2 28790   0.6056  94.5254 0002756 111.0208 222.2271  1.00271852 59049
ANIK F1R                
1 28868U 05036A   21273.41711677 -.00000076  00000-0  00000+0 0  9998
2 28868   0.0328  62.6331 0000567 130.0820 219.5246  1.00272054 58902
GALAXY 15 (G-15)        
1 28884U 05041A   21273.39658080  .00000077  00000-0  00000+0 0  9997
2 28884   0.0215 113.9998 0001784  77.3600 187.7809  1.00270676 58353
SYRACUSE 3A             
1 28885U 05041B   21272.50024309  .00000127  00000-0  00000-0 0  9998
2 28885   0.4677  96.4562 0002709  90.7749  48.3594  1.00274690 58480
INMARSAT 4-F2           
1 28899U 05044A   21273.07781752  .00000011  00000-0  00000+0 0  9992
2 28899   3.3102  34.7685 0002910 168.2222 257.9855  1.00271216 58245
SPACEWAY 2              
1 28903U 05046B   21273.49486744  .00000102  00000-0  00000+0 0  9990
2 28903   1.2951  90.3126 0000549 125.0806 193.3319  1.00271973 58241
METEOSAT-9 (MSG-2)      
1 28912U 05049B   21272.56338902  .00000018  00000-0  00000-0 0  9999
2 28912   5.4339  67.8418 0000610  46.1944 100.6357  1.00273576 57776
EUTELSAT 174A           
1 28924U 05052A   21273.55625941  .00000008  00000-0  00000+0 0  9996
2 28924   0.0112  11.0755 0006491 184.6984 187.9986  1.00268136 57737
ECHOSTAR 10             
1 28935U 06003A   21273.51868774 -.00000057  00000-0  00000+0 0  9999
2 28935   0.0155  96.9505 0001523 116.6757 232.3998  1.00272785 57266
SPAINSAT                
1 28945U 06007A   21273.05820729 -.00000217  00000-0  00000+0 0  9999
2 28945   0.0357 239.2635 0005629 325.0921 155.6410  1.00270965 56978
EUTELSAT HOTBIRD 13E    
1 28946U 06007B   21273.06770022  .00000086  00000-0  00000+0 0  9994
2 28946   0.0463 154.1927 0007019  38.9935 213.2241  1.00272790 57046
JCSAT-5A                
1 29045U 06010A   21272.73259218 -.00000329  00000-0  00000+0 0  9992
2 29045   0.0137 224.9634 0001959 337.1970 202.3566  1.00271581 56681
ASTRA 1KR               
1 29055U 06012A   21273.01646709  .00000119  00000-0  00000+0 0  9998
2 29055   0.0226 247.8557 0005145 325.7422 180.5235  1.00272602 56488
EWS-G1 (GOES 13)        
1 29155U 06018A   21272.57498903  .00000033  00000-0  00000+0 0  9991
2 29155   0.1348 117.5096 0007397  95.1458  64.6772  1.00275921 56243
EUTELSAT 113 WEST A     
1 29162U 06020A   21273.51640635 -.00000039  00000-0  00000+0 0  9995
2 29162   0.0260  86.0774 0002975 101.5589 254.7633  1.00272518 56214
GALAXY 16 (G-16)        
1 29236U 06023A   21273.52780575 -.00000129  00000-0  00000+0 0  9999
2 29236   0.0020 185.4406 0002690  11.5345 263.5424  1.00271504 56018
EUTELSAT HOTBIRD 13B    
1 29270U 06032A   21273.43590948  .00000085  00000-0  00000+0 0  9990
2 29270   0.0721   7.6292 0001532 230.9619 300.7272  1.00272548 55605
